[{"OBJECT_NAME":"STARLINK-5650","OBJECT_ID":"2023-015AC","EPOCH":"2026-03-09T23:48:54.157536","MEAN_MOTION":15.0253492,"ECCENTRICITY":0.00013819,"INCLINATION":43.0058,"RA_OF_ASC_NODE":323.9882,"ARG_OF_PERICENTER":266.1697,"MEAN_ANOMALY":93.8987,"EPHEMERIS_TYPE":0,"CLASSIFICATION_TYPE":"U","NORAD_CAT_ID":55475,"ELEMENT_SET_NO":999,"REV_AT_EPOCH":17080,"BSTAR":1.3792429e-5,"MEAN_MOTION_DOT":-1.7e-7,"MEAN_MOTION_DDOT":0},{"OBJECT_NAME":"COSMOS 886 DEB","OBJECT_ID":"1976-126K","EPOCH":"2026-03-09T08:30:22.920480","MEAN_MOTION":13.29941392,"ECCENTRICITY":0.07924496,"INCLINATION":65.7667,"RA_OF_ASC_NODE":54.9403,"ARG_OF_PERICENTER":220.5455,"MEAN_ANOMALY":133.3914,"EPHEMERIS_TYPE":0,"CLASSIFICATION_TYPE":"U","NORAD_CAT_ID":9653,"ELEMENT_SET_NO":999,"REV_AT_EPOCH":33076,"BSTAR":0.00057511282,"MEAN_MOTION_DOT":1.542e-5,"MEAN_MOTION_DDOT":0}]
